NORAD_CAT_ID,OBJECT_NAME,OBJECT_TYPE,EPOCH,MEAN_MOTION,ECCENTRICITY,INCLINATION,RA_OF_ASC_NODE,ARG_OF_PERICENTER,MEAN_ANOMALY,BSTAR,MEAN_MOTION_DOT,MEAN_MOTION_DDOT,TLE_LINE0,TLE_LINE1,TLE_LINE2,SEMIMAJOR_AXIS,PERIOD,APOGEE,PERIGEE,DECAYED
52847.0,STARLINK-4206,PAYLOAD,2024-04-03 14:06:21,15.08834938,0.0001304,53.2184,319.4468,83.7333,276.3808,6.795e-05,7.94e-06,0.0,0 STARLINK-4206,1 52847U 22062T   24094.58774892  .00000794  00000-0  67950-4 0  9998,2 52847  53.2184 319.4468 0001304  83.7333 276.3808 15.08834938 99349,6917.896,95.438,540.663,538.859,0.0
52847.0,STARLINK-4206,PAYLOAD,2024-04-03 22:03:17,15.08832343,0.0001318,53.2183,317.9618,96.4606,263.6536,5.6794e-05,6.16e-06,0.0,0 STARLINK-4206,1 52847U 22062T   24094.91895233  .00000616  00000-0  56794-4 0  9995,2 52847  53.2183 317.9618 0001318  96.4606 263.6536 15.08832343 99881,6917.904,95.438,540.681,538.857,0.0
52847.0,STARLINK-4206,PAYLOAD,2024-04-04 07:35:35,15.08842746,0.0001384,53.219,316.1775,91.0012,269.1139,7.206e-06,-1.73e-06,0.0,0 STARLINK-4206,1 52847U 22062T   24095.31638805 -.00000173  00000-0  72060-5 0  9994,2 52847  53.2190 316.1775 0001384  91.0012 269.1139 15.08842746 99944,6917.872,95.437,540.694,538.78,0.0
52847.0,STARLINK-4206,PAYLOAD,2024-04-04 20:18:41,15.08836147,0.0001414,53.2194,313.799,93.6354,266.48,4.5069e-05,4.29e-06,0.0,0 STARLINK-4206,1 52847U 22062T   24095.84631272  .00000429  00000-0  45069-4 0  9994,2 52847  53.2194 313.7990 0001414  93.6354 266.4800 15.08836147100026,6917.892,95.438,540.735,538.779,0.0
52847.0,STARLINK-4206,PAYLOAD,2024-04-04 21:54:04,15.08829459,0.0001395,53.2192,313.5015,93.4711,266.644,0.00014883,2.081e-05,0.0,0 STARLINK-4206,1 52847U 22062T   24095.91255326  .00002081  00000-0  14883-3 0  9999,2 52847  53.2192 313.5015 0001395  93.4711 266.6440 15.08829459 99547,6917.913,95.438,540.743,538.813,0.0
52847.0,STARLINK-4206,PAYLOAD,2024-04-05 07:26:22,15.08845493,0.0001385,53.2189,311.7168,84.8042,275.3108,0.00011987,1.621e-05,0.0,0 STARLINK-4206,1 52847U 22062T   24096.30998452  .00001621  00000-0  11987-3 0  9998,2 52847  53.2189 311.7168 0001385  84.8042 275.3108 15.08845493100099,6917.864,95.437,540.687,538.77,0.0
52847.0,STARLINK-4206,PAYLOAD,2024-04-05 13:47:55,15.08842742,0.0001358,53.2183,310.5277,84.0106,276.1041,9.8667e-05,1.283e-05,0.0,0 STARLINK-4206,1 52847U 22062T   24096.57494587  .00001283  00000-0  98667-4 0  9992,2 52847  53.2183 310.5277 0001358  84.0106 276.1041 15.08842742 99641,6917.872,95.437,540.676,538.798,0.0
52847.0,STARLINK-4206,PAYLOAD,2024-04-05 20:09:28,15.08837785,0.0001318,53.2176,309.3378,84.3477,275.7666,3.906e-05,3.34e-06,0.0,0 STARLINK-4206,1 52847U 22062T   24096.83991120  .00000334  00000-0  39060-4 0  9994,2 52847  53.2176 309.3378 0001318  84.3477 275.7666 15.08837785100171,6917.887,95.438,540.664,538.84,0.0
52847.0,STARLINK-4206,PAYLOAD,2024-04-05 21:44:51,15.08837267,0.0001298,53.2173,309.0409,82.6877,277.4263,5.4961e-05,5.87e-06,0.0,0 STARLINK-4206,1 52847U 22062T   24096.90615097  .00000587  00000-0  54961-4 0  9995,2 52847  53.2173 309.0409 0001298  82.6877 277.4263 15.08837267 99693,6917.889,95.438,540.652,538.856,0.0
52847.0,STARLINK-4206,PAYLOAD,2024-04-06 07:17:09,15.08845627,0.0001384,53.2179,307.2568,84.3667,275.7483,6.4447e-05,7.38e-06,0.0,0 STARLINK-4206,1 52847U 22062T   24097.30358484  .00000738  00000-0  64447-4 0  9992,2 52847  53.2179 307.2568 0001384  84.3667 275.7483 15.08845627100245,6917.863,95.437,540.686,538.771,0.0
52847.0,STARLINK-4206,PAYLOAD,2024-04-06 20:00:15,15.08833319,0.0001442,53.2184,304.8769,86.9531,273.1626,-5.2399e-06,-3.71e-06,0.0,0 STARLINK-4206,1 52847U 22062T   24097.83351522 -.00000371  00000-0 -52399-5 0  9995,2 52847  53.2184 304.8769 0001442  86.9531 273.1626 15.08833319100325,6917.901,95.438,540.763,538.768,0.0
52847.0,STARLINK-4206,PAYLOAD,2024-04-07 13:29:29,15.08840043,0.0001433,53.2173,301.6053,88.7298,271.3858,5.5819e-05,6.01e-06,0.0,0 STARLINK-4206,1 52847U 22062T   24098.56214912  .00000601  00000-0  55819-4 0  9990,2 52847  53.2173 301.6053 0001433  88.7298 271.3858 15.08840043100435,6917.88,95.438,540.737,538.754,0.0
52847.0,STARLINK-4206,PAYLOAD,2024-04-07 19:51:02,15.08831359,0.0001436,53.2185,300.4157,91.7548,268.3609,0.00019636,2.838e-05,0.0,0 STARLINK-4206,1 52847U 22062T   24098.82711164  .00002838  00000-0  19636-3 0  9990,2 52847  53.2185 300.4157 0001436  91.7548 268.3609 15.08831359 99982,6917.907,95.438,540.765,538.778,0.0
52847.0,STARLINK-4206,PAYLOAD,2024-04-08 06:58:44,15.08842049,0.0001418,53.2178,298.3342,87.8386,272.2769,3.6138e-05,2.87e-06,0.0,0 STARLINK-4206,1 52847U 22062T   24099.29078778  .00000287  00000-0  36138-4 0  9992,2 52847  53.2178 298.3342 0001418  87.8386 272.2769 15.08842049100051,6917.874,95.437,540.72,538.758,0.0
52847.0,STARLINK-4206,PAYLOAD,2024-04-08 19:41:49,15.08834336,0.0001435,53.2201,295.9564,87.9556,272.16,4.3344e-05,4.02e-06,0.0,0 STARLINK-4206,1 52847U 22062T   24099.82071327  .00000402  00000-0  43344-4 0  9990,2 52847  53.2201 295.9564 0001435  87.9556 272.1600 15.08834336100622,6917.898,95.438,540.755,538.77,0.0
52847.0,STARLINK-4206,PAYLOAD,2024-04-08 22:52:35,15.08835927,0.0001472,53.2194,295.3614,89.5959,270.5201,3.6796e-05,2.98e-06,0.0,0 STARLINK-4206,1 52847U 22062T   24099.95319272  .00000298  00000-0  36796-4 0  9994,2 52847  53.2194 295.3614 0001472  89.5959 270.5201 15.08835927100153,6917.893,95.438,540.776,538.74,0.0
52847.0,STARLINK-4206,PAYLOAD,2024-04-09 19:32:36,15.0883875,0.0001559,53.2185,291.4956,88.9008,271.2163,1.3317e-05,-7.6e-07,0.0,0 STARLINK-4206,1 52847U 22062T   24100.81431290 -.00000076  00000-0  13317-4 0  9996,2 52847  53.2185 291.4956 0001559  88.9008 271.2163 15.08838750100289,6917.884,95.438,540.828,538.671,0.0
52847.0,STARLINK-4206,PAYLOAD,2024-04-10 05:04:55,15.08840782,0.0001591,53.2193,289.7115,88.9147,271.2027,3.8876e-05,3.31e-06,0.0,0 STARLINK-4206,1 52847U 22062T   24101.21175082  .00000331  00000-0  38876-4 0  9995,2 52847  53.2193 289.7115 0001591  88.9147 271.2027 15.08840782100833,6917.878,95.438,540.844,538.642,0.0
52847.0,STARLINK-4206,PAYLOAD,2024-04-10 19:23:24,15.08825233,7.64e-05,53.2183,287.038,91.266,268.842,8.4902e-05,1.063e-05,0.0,0 STARLINK-4206,1 52847U 22062T   24101.80791867  .00001063  00000-0  84902-4 0  9999,2 52847  53.2183 287.0380 0000764  91.2660 268.8420 15.08825233100928,6917.926,95.438,540.319,539.262,0.0
52847.0,STARLINK-4206,PAYLOAD,2024-04-11 04:55:42,15.08836898,0.0001634,53.2168,285.2521,98.8069,261.3108,4.2468e-05,3.88e-06,0.0,0 STARLINK-4206,1 52847U 22062T   24102.20535588  .00000388  00000-0  42468-4 0  9990,2 52847  53.2168 285.2521 0001634  98.8069 261.3108 15.08836898100987,6917.89,95.438,540.885,538.624,0.0
52847.0,STARLINK-4206,PAYLOAD,2024-04-11 19:14:11,15.08833382,0.0001698,53.2174,282.5763,101.0444,259.0739,1.1344e-06,-2.7e-06,0.0,0 STARLINK-4206,1 52847U 22062T   24102.80152195 -.00000270  00000-0  11344-5 0  9996,2 52847  53.2174 282.5763 0001698 101.0444 259.0739 15.08833382100581,6917.901,95.438,540.94,538.591,0.0
52847.0,STARLINK-4206,PAYLOAD,2024-04-13 18:55:45,15.08842785,0.0001268,53.2174,273.6523,81.7413,278.3722,6.656e-05,7.72e-06,0.0,0 STARLINK-4206,1 52847U 22062T   24104.78871759  .00000772  00000-0  66560-4 0  9994,2 52847  53.2174 273.6523 0001268  81.7413 278.3722 15.08842785101370,6917.872,95.437,540.614,538.86,0.0
52847.0,STARLINK-4206,PAYLOAD,2024-04-14 17:11:08,15.08846843,0.000158,53.2175,269.4904,67.052,293.0639,8.5871e-05,1.079e-05,0.0,0 STARLINK-4206,1 52847U 22062T   24105.71607478  .00001079  00000-0  85871-4 0  9990,2 52847  53.2175 269.4904 0001580  67.0520 293.0639 15.08846843101022,6917.859,95.437,540.817,538.631,0.0
52847.0,STARLINK-4206,PAYLOAD,2024-04-15 20:12:42,15.08844391,0.0001632,53.2174,264.4357,66.8511,293.2653,4.9499e-05,5e-06,0.0,0 STARLINK-4206,1 52847U 22062T   24106.84215507  .00000500  00000-0  49499-4 0  9997,2 52847  53.2174 264.4357 0001632  66.8511 293.2653 15.08844391101689,6917.867,95.437,540.861,538.603,0.0
52847.0,STARLINK-4206,PAYLOAD,2024-04-16 13:41:56,15.08847623,0.0001626,53.2185,261.1617,100.563,259.5545,1.2726e-05,-8.5e-07,0.0,0 STARLINK-4206,1 52847U 22062T   24107.57079178 -.00000085  00000-0  12726-4 0  9992,2 52847  53.2185 261.1617 0001626 100.5630 259.5545 15.08847623101300,6917.857,95.437,540.847,538.597,0.0
52847.0,STARLINK-4206,PAYLOAD,2024-04-16 16:52:42,15.08851377,0.0001228,53.2177,260.5657,91.5935,268.5198,3.7385e-05,3.07e-06,0.0,0 STARLINK-4206,1 52847U 22062T   24107.70326810  .00000307  00000-0  37385-4 0  9999,2 52847  53.2177 260.5657 0001228  91.5935 268.5198 15.08851377101320,6917.846,95.437,540.56,538.861,0.0
52847.0,STARLINK-4206,PAYLOAD,2024-04-17 13:32:46,15.08801762,0.0001186,53.2179,256.7026,93.4503,266.6625,-0.00017676,-3.097e-05,0.0,0 STARLINK-4206,1 52847U 22062T   24108.56442734 -.00003097  00000-0 -17676-3 0  9999,2 52847  53.2179 256.7026 0001186  93.4503 266.6625 15.08801762101949,6917.997,95.44,540.683,539.042,0.0
52847.0,STARLINK-4206,PAYLOAD,2024-04-17 15:08:09,15.0880594,0.0001487,53.2174,256.4045,105.7629,254.3527,-0.00013864,-2.492e-05,0.0,0 STARLINK-4206,1 52847U 22062T   24108.63066487 -.00002492  00000-0 -13864-3 0  9997,2 52847  53.2174 256.4045 0001487 105.7629 254.3527 15.08805940101466,6917.984,95.44,540.878,538.821,0.0
52847.0,STARLINK-4206,PAYLOAD,2024-04-17 16:43:31,15.08809465,0.0001448,53.2167,256.1065,108.7391,251.3758,-0.00030832,-5.187e-05,0.0,0 STARLINK-4206,1 52847U 22062T   24108.69689458 -.00005187  00000-0 -30832-3 0  9990,2 52847  53.2167 256.1065 0001448 108.7391 251.3758 15.08809465101967,6917.974,95.439,540.84,538.837,0.0
52847.0,STARLINK-4206,PAYLOAD,2024-04-18 13:23:32,15.08831699,0.0001188,53.2169,252.2454,73.3731,286.7391,7.8281e-05,9.58e-06,0.0,0 STARLINK-4206,1 52847U 22062T   24109.55801184  .00000958  00000-0  78281-4 0  9998,2 52847  53.2169 252.2454 0001188  73.3731 286.7391 15.08831699102098,6917.906,95.438,540.593,538.949,0.0
